{
  "type": "FeatureCollection",
  "name": "Tutupan_Lahan_KLHK_BIG_2022",
  "crs": {
    "type": "name",
    "properties": {
      "name": "urn:ogc:def:crs:OGC:1.3:CRS84"
    }
  },
  "features": [
    {
      "type": "Feature",
      "properties": {
        "KELAS": "Taman Nasional & Kawasan Konservasi (CA/TN)",
        "KODE_SNI": "5011",
        "KODE_KLHK": "2011",
        "TAHUN_PETA": 2022,
        "PENGELOLA": "Balai TN Bantimurung Bulusaraung (KLHK)",
        "LUAS_HA": 43750,
        "STATUS": "Kawasan Suaka Alam — Dilindungi UU 5/1990",
        "SUMBER": "KLHK / BIG Peta Tutupan Lahan 2022",
        "FLORA_UNGGULAN": "Kupu-kupu Endemik (250+ spesies), Babi Hutan, Tarsius",
        "ANCAMAN": "Perambahan hutan, wisata berlebih, kebakaran",
        "COLOR": "#1b4332",
        "OPACITY": 0.68
      },
      "geometry": {
        "type": "Polygon",
        "coordinates": [
          [
            [
              119.645,
              -4.96
            ],
            [
              119.72,
              -4.94
            ],
            [
              119.78,
              -4.95
            ],
            [
              119.82,
              -4.88
            ],
            [
              119.76,
              -4.84
            ],
            [
              119.69,
              -4.85
            ],
            [
              119.64,
              -4.9
            ],
            [
              119.645,
              -4.96
            ]
          ]
        ]
      }
    },
    {
      "type": "Feature",
      "properties": {
        "KELAS": "Hutan Lindung (HL) — Resapan Air Hulu DAS",
        "KODE_SNI": "5012",
        "KODE_KLHK": "2020",
        "TAHUN_PETA": 2022,
        "PENGELOLA": "KPH Bulusaraung / Dinas Kehutanan Sulsel",
        "LUAS_HA": 28400,
        "STATUS": "Hutan Lindung SK Menhut No. 434/Kpts-II/2009",
        "SUMBER": "KLHK / BIG Peta Tutupan Lahan 2022",
        "FLORA_UNGGULAN": "Shorea spp. (meranti), Agathis sp., rotan, bambu",
        "ANCAMAN": "Penebangan ilegal, konversi kebun, kebakaran lahan",
        "COLOR": "#2d6a4f",
        "OPACITY": 0.65
      },
      "geometry": {
        "type": "Polygon",
        "coordinates": [
          [
            [
              119.75,
              -5.06
            ],
            [
              119.85,
              -5.04
            ],
            [
              119.92,
              -4.92
            ],
            [
              119.88,
              -4.88
            ],
            [
              119.8,
              -4.98
            ],
            [
              119.73,
              -5.02
            ],
            [
              119.75,
              -5.06
            ]
          ]
        ]
      }
    },
    {
      "type": "Feature",
      "properties": {
        "KELAS": "Kawasan Karst & Ekosistem Batuan Gamping (UNESCO Geopark)",
        "KODE_SNI": "5013",
        "KODE_KLHK": "2090",
        "TAHUN_PETA": 2022,
        "PENGELOLA": "Badan Pengelola Geopark Maros-Pangkep (BIG/ESDM)",
        "LUAS_HA": 18200,
        "STATUS": "UNESCO Global Geopark 2023 & Cagar Budaya (Kemendikbud)",
        "SUMBER": "BIG / KLHK / UNESCO Geopark Application 2023",
        "FLORA_UNGGULAN": "Vegetasi kars kering, Cycas rumphii, Ficus spp.",
        "ANCAMAN": "Penambangan kapur/marmer ilegal, vandalisme situs prasejarah",
        "COLOR": "#74c69d",
        "OPACITY": 0.65
      },
      "geometry": {
        "type": "Polygon",
        "coordinates": [
          [
            [
              119.6,
              -4.98
            ],
            [
              119.65,
              -4.97
            ],
            [
              119.67,
              -5.03
            ],
            [
              119.62,
              -5.06
            ],
            [
              119.59,
              -5.02
            ],
            [
              119.6,
              -4.98
            ]
          ]
        ]
      }
    },
    {
      "type": "Feature",
      "properties": {
        "KELAS": "Hutan Produksi (HP) — Budidaya Kehutanan",
        "KODE_SNI": "5021",
        "KODE_KLHK": "2030",
        "TAHUN_PETA": 2022,
        "PENGELOLA": "Perum Perhutani / KPH Bulusaraung / Dishut Sulsel",
        "LUAS_HA": 11800,
        "STATUS": "Hutan Produksi Tetap (HPT)",
        "SUMBER": "KLHK / BIG Peta Tutupan Lahan 2022",
        "FLORA_UNGGULAN": "Jati (Tectona grandis), Pinus merkusii, Mahoni",
        "ANCAMAN": "Perambahan, kebakaran, gangguan kawasan perbatasan",
        "COLOR": "#40916c",
        "OPACITY": 0.6
      },
      "geometry": {
        "type": "Polygon",
        "coordinates": [
          [
            [
              119.76,
              -5.05
            ],
            [
              119.8,
              -5.03
            ],
            [
              119.82,
              -5.08
            ],
            [
              119.78,
              -5.09
            ],
            [
              119.74,
              -5.07
            ],
            [
              119.76,
              -5.05
            ]
          ]
        ]
      }
    },
    {
      "type": "Feature",
      "properties": {
        "KELAS": "Pertanian Lahan Basah (Sawah Irigasi — LP2B)",
        "KODE_SNI": "2011",
        "KODE_KLHK": "1000",
        "TAHUN_PETA": 2022,
        "PENGELOLA": "Masyarakat Petani / Dinas Pertanian Maros",
        "LUAS_HA": 32150,
        "STATUS": "Lahan Pertanian Pangan Berkelanjutan (LP2B) — PerDa No. 5/2019",
        "SUMBER": "BPS / Dinas Pertanian Maros 2023 / BIG 2022",
        "FLORA_UNGGULAN": "Padi Ciherang, IR-64, Inpari; palawija; tanaman sayuran",
        "ANCAMAN": "Konversi lahan ke permukiman, alih fungsi industri",
        "COLOR": "#d4a373",
        "OPACITY": 0.65
      },
      "geometry": {
        "type": "Polygon",
        "coordinates": [
          [
            [
              119.54,
              -4.99
            ],
            [
              119.6,
              -4.98
            ],
            [
              119.61,
              -4.93
            ],
            [
              119.56,
              -4.91
            ],
            [
              119.525,
              -4.94
            ],
            [
              119.54,
              -4.99
            ]
          ]
        ]
      }
    },
    {
      "type": "Feature",
      "properties": {
        "KELAS": "Pertanian Lahan Kering / Kebun Campuran",
        "KODE_SNI": "2012",
        "KODE_KLHK": "1200",
        "TAHUN_PETA": 2022,
        "PENGELOLA": "Masyarakat Petani / Dinas Pertanian Maros",
        "LUAS_HA": 14600,
        "STATUS": "Lahan Pertanian Produktif Pegunungan",
        "SUMBER": "Dinas Pertanian Maros 2023 / BIG 2022",
        "FLORA_UNGGULAN": "Jagung, singkong, cengkeh, kakao, kopi robusta, aren",
        "ANCAMAN": "Erosi lereng, perubahan musim, harga komoditas rendah",
        "COLOR": "#e9c46a",
        "OPACITY": 0.6
      },
      "geometry": {
        "type": "Polygon",
        "coordinates": [
          [
            [
              119.82,
              -4.95
            ],
            [
              119.86,
              -4.9
            ],
            [
              119.88,
              -4.86
            ],
            [
              119.85,
              -4.84
            ],
            [
              119.81,
              -4.88
            ],
            [
              119.78,
              -4.92
            ],
            [
              119.82,
              -4.95
            ]
          ]
        ]
      }
    },
    {
      "type": "Feature",
      "properties": {
        "KELAS": "Tambak Perikanan Air Payau & Sabuk Hijau Mangrove",
        "KODE_SNI": "3011",
        "KODE_KLHK": "5000",
        "TAHUN_PETA": 2022,
        "PENGELOLA": "Masyarakat Petambak & Dinas Kelautan Perikanan Maros",
        "LUAS_HA": 14500,
        "STATUS": "Kawasan Perikanan Pesisir & Konservasi Mangrove",
        "SUMBER": "BIG / Dishutla Sulsel 2022 / Kemen KKP 2023",
        "FLORA_UNGGULAN": "Mangrove (Rhizophora, Avicennia, Sonneratia), nipah, nipa",
        "ANCAMAN": "Abrasi pantai, konversi tambak intensif, limbah industri",
        "COLOR": "#00b4d8",
        "OPACITY": 0.62
      },
      "geometry": {
        "type": "Polygon",
        "coordinates": [
          [
            [
              119.475,
              -4.86
            ],
            [
              119.53,
              -4.85
            ],
            [
              119.55,
              -4.92
            ],
            [
              119.51,
              -4.97
            ],
            [
              119.468,
              -4.95
            ],
            [
              119.475,
              -4.86
            ]
          ]
        ]
      }
    },
    {
      "type": "Feature",
      "properties": {
        "KELAS": "Permukiman & Kawasan Terbangun Perkotaan",
        "KODE_SNI": "1011",
        "KODE_KLHK": "2091",
        "TAHUN_PETA": 2022,
        "PENGELOLA": "Pemerintah Daerah / Pengembang Mamminasata",
        "LUAS_HA": 11300,
        "STATUS": "Kawasan Perkotaan — RTRW Kab. Maros 2012-2032",
        "SUMBER": "BPS / BIG / RTRW Kab. Maros 2023",
        "FLORA_UNGGULAN": "-",
        "ANCAMAN": "Banjir genangan, urban heat island, kemacetan",
        "COLOR": "#e07a5f",
        "OPACITY": 0.72
      },
      "geometry": {
        "type": "Polygon",
        "coordinates": [
          [
            [
              119.555,
              -5.02
            ],
            [
              119.595,
              -5.01
            ],
            [
              119.59,
              -4.98
            ],
            [
              119.56,
              -4.985
            ],
            [
              119.555,
              -5.02
            ]
          ]
        ]
      }
    },
    {
      "type": "Feature",
      "properties": {
        "KELAS": "Kawasan Peruntukan Industri (KPI) Mamminasata",
        "KODE_SNI": "1021",
        "KODE_KLHK": "2091",
        "TAHUN_PETA": 2022,
        "PENGELOLA": "DPMPTSP Kab. Maros / BKPM RI",
        "LUAS_HA": 4200,
        "STATUS": "Kawasan Industri Mandai & Moncongloe — Perpres No. 55/2011",
        "SUMBER": "RTRW Kab. Maros / BKPM 2022",
        "FLORA_UNGGULAN": "-",
        "ANCAMAN": "Polusi udara, limbah industri, tekanan lahan",
        "COLOR": "#6c757d",
        "OPACITY": 0.65
      },
      "geometry": {
        "type": "Polygon",
        "coordinates": [
          [
            [
              119.51,
              -5.145
            ],
            [
              119.55,
              -5.135
            ],
            [
              119.565,
              -5.11
            ],
            [
              119.535,
              -5.105
            ],
            [
              119.51,
              -5.12
            ],
            [
              119.51,
              -5.145
            ]
          ]
        ]
      }
    },
    {
      "type": "Feature",
      "properties": {
        "KELAS": "Kawasan Khusus Bandara Sultan Hasanuddin (KKOP)",
        "KODE_SNI": "1025",
        "KODE_KLHK": "2091",
        "TAHUN_PETA": 2022,
        "PENGELOLA": "PT Angkasa Pura I — InJourney Airports",
        "LUAS_HA": 818,
        "STATUS": "Kawasan Keselamatan Operasi Penerbangan (KKOP) — KM 11/2010",
        "SUMBER": "AP I / BIG 2022",
        "FLORA_UNGGULAN": "-",
        "ANCAMAN": "Pengembangan kawasan sekitar, bird strike",
        "COLOR": "#9d4edd",
        "OPACITY": 0.78
      },
      "geometry": {
        "type": "Polygon",
        "coordinates": [
          [
            [
              119.538,
              -5.08
            ],
            [
              119.565,
              -5.05
            ],
            [
              119.578,
              -5.065
            ],
            [
              119.55,
              -5.095
            ],
            [
              119.538,
              -5.08
            ]
          ]
        ]
      }
    }
  ]
}